{
  "type": "FeatureCollection",
  "features": [
    {
      "type": "Feature",
      "properties": {
        "norad_id": 34468,
        "name": "COSMOS 2251 DEB",
        "group": "cosmos-2251-debris",
        "lat": 18.642302232476446,
        "lon": 97.16919939020717,
        "alt_km": 777.9012451342323,
        "timestamp": "2025-12-26T09:30:54.034376+00:00",
        "meta_object_name": "COSMOS 2251 DEB",
        "meta_object_id": "1993-036TM",
        "meta_epoch": "2025-12-26T01:07:55.075008",
        "meta_mean_motion": 14.4765971,
        "meta_eccentricity": 0.007623,
        "meta_inclination": 74.0132,
        "meta_ra_of_asc_node": 92.2733,
        "meta_arg_of_pericenter": 234.5165,
        "meta_mean_anomaly": 124.8866,
        "meta_ephemeris_type": 0,
        "meta_classification_type": "U",
        "meta_norad_cat_id": 34468,
        "meta_element_set_no": 999,
        "meta_rev_at_epoch": 88654,
        "meta_bstar": 0.00035429,
        "meta_mean_motion_dot": 1.325e-05,
        "meta_mean_motion_ddot": 0,
        "tle_line1": "1 34468U 93036TM  25360.04716522  .00001325  00000+0  35429-3 0  9995",
        "tle_line2": "2 34468  74.0132  92.2733 0076230 234.5165 124.8866 14.47659710886544"
      },
      "geometry": {
        "type": "Point",
        "coordinates": [
          97.16919939020717,
          18.642302232476446
        ]
      }
    },
    {
      "type": "Feature",
      "properties": {
        "norad_id": 34472,
        "name": "COSMOS 2251 DEB",
        "group": "cosmos-2251-debris",
        "lat": -24.984359729234598,
        "lon": -96.67490482694524,
        "alt_km": 761.8964865048092,
        "timestamp": "2025-12-26T09:30:54.034386+00:00",
        "meta_object_name": "COSMOS 2251 DEB",
        "meta_object_id": "1993-036TR",
        "meta_epoch": "2025-12-25T14:59:08.401056",
        "meta_mean_motion": 13.7035431,
        "meta_eccentricity": 0.032767,
        "meta_inclination": 74.0846,
        "meta_ra_of_asc_node": 76.9541,
        "meta_arg_of_pericenter": 205.149,
        "meta_mean_anomaly": 153.3364,
        "meta_ephemeris_type": 0,
        "meta_classification_type": "U",
        "meta_norad_cat_id": 34472,
        "meta_element_set_no": 999,
        "meta_rev_at_epoch": 83903,
        "meta_bstar": 0.00075081,
        "meta_mean_motion_dot": 9.47e-06,
        "meta_mean_motion_ddot": 0,
        "tle_line1": "1 34472U 93036TR  25359.62440279  .00000947  00000+0  75081-3 0  9992",
        "tle_line2": "2 34472  74.0846  76.9541 0327670 205.1490 153.3364 13.70354310839034"
      },
      "geometry": {
        "type": "Point",
        "coordinates": [
          -96.67490482694524,
          -24.984359729234598
        ]
      }
    },
    {
      "type": "Feature",
      "properties": {
        "norad_id": 34474,
        "name": "COSMOS 2251 DEB",
        "group": "cosmos-2251-debris",
        "lat": -45.40805008627299,
        "lon": -74.49368761422184,
        "alt_km": 804.5712116830227,
        "timestamp": "2025-12-26T09:30:54.034397+00:00",
        "meta_object_name": "COSMOS 2251 DEB",
        "meta_object_id": "1993-036TT",
        "meta_epoch": "2025-12-25T13:46:35.156064",
        "meta_mean_motion": 14.06520553,
        "meta_eccentricity": 0.0199435,
        "meta_inclination": 74.0788,
        "meta_ra_of_asc_node": 303.7716,
        "meta_arg_of_pericenter": 14.5728,
        "meta_mean_anomaly": 96.9226,
        "meta_ephemeris_type": 0,
        "meta_classification_type": "U",
        "meta_norad_cat_id": 34474,
        "meta_element_set_no": 999,
        "meta_rev_at_epoch": 85689,
        "meta_bstar": 0.0025497,
        "meta_mean_motion_dot": 5.032e-05,
        "meta_mean_motion_ddot": 0,
        "tle_line1": "1 34474U 93036TT  25359.57401801  .00005032  00000+0  25497-2 0  9991",
        "tle_line2": "2 34474  74.0788 303.7716 0199435  14.5728  96.9226 14.06520553856894"
      },
      "geometry": {
        "type": "Point",
        "coordinates": [
          -74.49368761422184,
          -45.40805008627299
        ]
      }
    },
    {
      "type": "Feature",
      "properties": {
        "norad_id": 34476,
        "name": "COSMOS 2251 DEB",
        "group": "cosmos-2251-debris",
        "lat": 13.756982453950508,
        "lon": -124.54134800352276,
        "alt_km": 1033.3522668683463,
        "timestamp": "2025-12-26T09:30:54.034408+00:00",
        "meta_object_name": "COSMOS 2251 DEB",
        "meta_object_id": "1993-036TV",
        "meta_epoch": "2025-12-23T04:15:02.567520",
        "meta_mean_motion": 13.82132648,
        "meta_eccentricity": 0.03222242,
        "meta_inclination": 74.0063,
        "meta_ra_of_asc_node": 64.9101,
        "meta_arg_of_pericenter": 282.3311,
        "meta_mean_anomaly": 74.192,
        "meta_ephemeris_type": 0,
        "meta_classification_type": "U",
        "meta_norad_cat_id": 34476,
        "meta_element_set_no": 999,
        "meta_rev_at_epoch": 83782,
        "meta_bstar": 0.0037798313,
        "meta_mean_motion_dot": 6.03e-05,
        "meta_mean_motion_ddot": 0,
        "tle_line1": "1 34476U 93036TV  25357.17711305  .00006030  00000+0  37798-2 0  9996",
        "tle_line2": "2 34476  74.0063  64.9101 0322224 282.3311  74.1920 13.82132648837821"
      },
      "geometry": {
        "type": "Point",
        "coordinates": [
          -124.54134800352276,
          13.756982453950508
        ]
      }
    },
    {
      "type": "Feature",
      "properties": {
        "norad_id": 34477,
        "name": "COSMOS 2251 DEB",
        "group": "cosmos-2251-debris",
        "lat": 40.519850864098416,
        "lon": -150.74099762440179,
        "alt_km": 699.7148067699181,
        "timestamp": "2025-12-26T09:30:54.034418+00:00",
        "meta_object_name": "COSMOS 2251 DEB",
        "meta_object_id": "1993-036TW",
        "meta_epoch": "2025-12-26T04:11:44.255328",
        "meta_mean_motion": 14.56954822,
        "meta_eccentricity": 0.0076624,
        "meta_inclination": 73.9786,
        "meta_ra_of_asc_node": 43.8975,
        "meta_arg_of_pericenter": 228.5478,
        "meta_mean_anomaly": 187.6774,
        "meta_ephemeris_type": 0,
        "meta_classification_type": "U",
        "meta_norad_cat_id": 34477,
        "meta_element_set_no": 999,
        "meta_rev_at_epoch": 88821,
        "meta_bstar": 0.00071339,
        "meta_mean_motion_dot": 3.305e-05,
        "meta_mean_motion_ddot": 0,
        "tle_line1": "1 34477U 93036TW  25360.17481777  .00003305  00000+0  71339-3 0  9990",
        "tle_line2": "2 34477  73.9786  43.8975 0076624 228.5478 187.6774 14.56954822888217"
      },
      "geometry": {
        "type": "Point",
        "coordinates": [
          -150.74099762440179,
          40.519850864098416
        ]
      }
    },
    {
      "type": "Feature",
      "properties": {
        "norad_id": 34478,
        "name": "COSMOS 2251 DEB",
        "group": "cosmos-2251-debris",
        "lat": 31.779413853554292,
        "lon": -11.024323219802657,
        "alt_km": 558.3979323031081,
        "timestamp": "2025-12-26T09:30:54.034429+00:00",
        "meta_object_name": "COSMOS 2251 DEB",
        "meta_object_id": "1993-036TX",
        "meta_epoch": "2025-12-26T03:33:48.284928",
        "meta_mean_motion": 15.09194751,
        "meta_eccentricity": 0.0033509,
        "meta_inclination": 74.0404,
        "meta_ra_of_asc_node": 339.2742,
        "meta_arg_of_pericenter": 195.1093,
        "meta_mean_anomaly": 291.5751,
        "meta_ephemeris_type": 0,
        "meta_classification_type": "U",
        "meta_norad_cat_id": 34478,
        "meta_element_set_no": 999,
        "meta_rev_at_epoch": 89175,
        "meta_bstar": 0.0029302,
        "meta_mean_motion_dot": 0.00047466,
        "meta_mean_motion_ddot": 0,
        "tle_line1": "1 34478U 93036TX  25360.14847552  .00047466  00000+0  29302-2 0  9993",
        "tle_line2": "2 34478  74.0404 339.2742 0033509 195.1093 291.5751 15.09194751891757"
      },
      "geometry": {
        "type": "Point",
        "coordinates": [
          -11.024323219802657,
          31.779413853554292
        ]
      }
    },
    {
      "type": "Feature",
      "properties": {
        "norad_id": 34481,
        "name": "COSMOS 2251 DEB",
        "group": "cosmos-2251-debris",
        "lat": -34.816070138211785,
        "lon": -140.03824233730043,
        "alt_km": 740.6327152089061,
        "timestamp": "2025-12-26T09:30:54.034439+00:00",
        "meta_object_name": "COSMOS 2251 DEB",
        "meta_object_id": "1993-036UA",
        "meta_epoch": "2025-12-26T01:57:47.583072",
        "meta_mean_motion": 14.32596743,
        "meta_eccentricity": 0.0070175,
        "meta_inclination": 73.9789,
        "meta_ra_of_asc_node": 29.0117,
        "meta_arg_of_pericenter": 200.8361,
        "meta_mean_anomaly": 193.1339,
        "meta_ephemeris_type": 0,
        "meta_classification_type": "U",
        "meta_norad_cat_id": 34481,
        "meta_element_set_no": 999,
        "meta_rev_at_epoch": 87640,
        "meta_bstar": 0.00059012,
        "meta_mean_motion_dot": 1.62e-05,
        "meta_mean_motion_ddot": 0,
        "tle_line1": "1 34481U 93036UA  25360.08180073  .00001620  00000+0  59012-3 0  9992",
        "tle_line2": "2 34481  73.9789  29.0117 0070175 200.8361 193.1339 14.32596743876403"
      },
      "geometry": {
        "type": "Point",
        "coordinates": [
          -140.03824233730043,
          -34.816070138211785
        ]
      }
    }
  ]
}